H1 CPF  1  DLR 2022 08 28 10  7402 technosat            
H2  1704205 6203    42829 2022 08 28 00 00 00 2022 09 04 00 00 00    60 1 1  0 0 0
H9
10 0 59822  43200.000000  0      -2896083.332       6178015.705       1397761.442
10 0 59822  43260.000000  0      -2847158.799       6285527.653        954186.082
10 0 59822  43320.000000  0      -2785369.427       6365967.797        506544.860
10 0 59822  43380.000000  0      -2711219.991       6418896.083         56745.956
10 0 59822  43440.000000  0      -2625271.273       6443995.245       -393294.655
10 0 59822  43500.000000  0      -2528136.515       6441072.534       -841661.747
10 0 59822  43560.000000  0      -2420477.577       6410060.764      -1286449.391
10 0 59822  43620.000000  0      -2303000.821       6351018.652      -1725769.469
10 0 59822  43680.000000  0      -2176452.762       6264130.405      -2157759.868
10 0 59822  43740.000000  0      -2041615.630       6149704.861      -2580592.433
10 0 59822  43800.000000  0      -1899302.795       6008174.052      -2992480.734
10 0 59822  43860.000000  0      -1750354.116       5840091.238      -3391687.621
10 0 59822  43920.000000  0      -1595631.211       5646128.331      -3776532.556
10 0 59822  43980.000000  0      -1436012.678       5427072.740      -4145398.597
10 0 59822  44040.000000  0      -1272389.289       5183823.720      -4496738.970
10 0 59822  44100.000000  0      -1105659.223       4917388.303      -4829083.295
10 0 59822  44160.000000  0       -936723.325       4628876.787      -5141043.474
10 0 59822  44220.000000  0       -766480.413       4319497.781      -5431319.200
10 0 59822  44280.000000  0       -595822.659       3990552.823      -5698703.055
10 0 59822  44340.000000  0       -425631.069       3643430.607      -5942085.165
10 0 59822  44400.000000  0       -256771.097       3279600.875      -6160457.397
10 0 59822  44460.000000  0        -90088.425       2900607.986      -6352917.075
10 0 59822  44520.000000  0         73595.073       2508064.288      -6518670.215
10 0 59822  44580.000000  0        233485.188       2103643.305      -6657034.410
10 0 59822  44640.000000  0        388819.052       1689072.659      -6767441.336
10 0 59822  44700.000000  0        538868.620       1266126.732      -6849438.759
10 0 59822  44760.000000  0        682943.930        836619.240      -6902692.037
10 0 59822  44820.000000  0        820396.135        402395.673      -6926985.308
10 0 59822  44880.000000  0        950620.295        -34674.466      -6922222.204
10 0 59822  44940.000000  0       1073057.909       -472705.488      -6888426.059
10 0 59822  45000.000000  0       1187199.211       -909803.327      -6825739.711
10 0 59822  45060.000000  0       1292585.192      -1344073.433      -6734424.917
10 0 59822  45120.000000  0       1388809.374      -1773628.648      -6614861.372
10 0 59822  45180.000000  0       1475519.354      -2196597.120      -6467545.346
10 0 59822  45240.000000  0       1552418.083      -2611130.208      -6293087.882
10 0 59822  45300.000000  0       1619264.844      -3015410.387      -6092212.614
10 0 59822  45360.000000  0       1675875.941      -3407659.171      -5865753.138
10 0 59822  45420.000000  0       1722125.122      -3786144.910      -5614649.843
10 0 59822  45480.000000  0       1757943.714      -4149190.373      -5339946.300
10 0 59822  45540.000000  0       1783320.490      -4495180.133      -5042785.283
10 0 59822  45600.000000  0       1798301.242      -4822567.770      -4724404.431
10 0 59822  45660.000000  0       1802988.095      -5129882.934      -4386131.527
10 0 59822  45720.000000  0       1797538.507      -5415738.174      -4029379.329
10 0 59822  45780.000000  0       1782163.961      -5678835.464      -3655639.981
10 0 59822  45840.000000  0       1757128.390      -5917972.366      -3266479.053
10 0 59822  45900.000000  0       1722746.321      -6132047.845      -2863529.230
10 0 59822  45960.000000  0       1679380.776      -6320067.675      -2448483.624
10 0 59822  46020.000000  0       1627440.932      -6481149.385      -2023088.758
10 0 59822  46080.000000  0       1567379.530      -6614526.695      -1589137.300
10 0 59822  46140.000000  0       1499689.995      -6719553.556      -1148460.605
10 0 59822  46200.000000  0       1424903.340      -6795707.705       -702920.881
10 0 59822  46260.000000  0       1343584.936      -6842593.448       -254403.130
10 0 59822  46320.000000  0       1256331.094      -6859943.847        195192.885
10 0 59822  46380.000000  0       1163765.442      -6847622.491        643960.778
10 0 59822  46440.000000  0       1066535.105      -6805624.606       1089995.888
10 0 59822  46500.000000  0        965306.844      -6734077.473       1531403.614
10 0 59822  46560.000000  0        860763.122      -6633240.184       1966307.766
10 0 59822  46620.000000  0        753598.066      -6503502.745       2392858.770
10 0 59822  46680.000000  0        644513.330      -6345384.548       2809241.816
10 0 59822  46740.000000  0        534213.938      -6159532.160       3213684.751
10 0 59822  46800.000000  0        423404.146      -5946716.576       3604465.777
10 0 59822  46860.000000  0        312783.331      -5707829.898       3979920.910
10 0 59822  46920.000000  0        203041.976      -5443881.455       4338451.199
10 0 59822  46980.000000  0         94857.682      -5155993.345       4678529.684
10 0 59822  47040.000000  0        -11108.713      -4845395.394       4998707.964
10 0 59822  47100.000000  0       -114216.864      -4513419.688       5297622.360
10 0 59822  47160.000000  0       -213850.499      -4161494.670       5573999.781
10 0 59822  47220.000000  0       -309420.845      -3791138.709       5826663.188
10 0 59822  47280.000000  0       -400369.894      -3403953.264       6054536.530
10 0 59822  47340.000000  0       -486173.450      -3001615.720       6256649.192
10 0 59822  47400.000000  0       -566343.978      -2585871.982       6432139.960
10 0 59822  47460.000000  0       -640433.233      -2158528.825       6580260.606
10 0 59822  47520.000000  0       -708034.628      -1721445.953       6700379.027
10 0 59822  47580.000000  0       -768785.378      -1276527.827       6791981.921
10 0 59822  47640.000000  0       -822368.394       -825715.245       6854676.989
10 0 59822  47700.000000  0       -868513.924       -370976.772       6888194.589
10 0 59822  47760.000000  0       -907000.911         85699.931       6892388.870
10 0 59822  47820.000000  0       -937658.050        542316.865       6867238.449
10 0 59822  47880.000000  0       -960364.555        996874.540       6812846.537
10 0 59822  47940.000000  0       -975050.643       1447380.787       6729440.566
10 0 59822  48000.000000  0       -981697.738       1891859.583       6617371.341
10 0 59822  48060.000000  0       -980338.383       2328359.835       6477111.647
10 0 59822  48120.000000  0       -971055.873       2754964.033       6309254.388
10 0 59822  48180.000000  0       -953983.623       3169796.861       6114510.250
10 0 59822  48240.000000  0       -929304.227       3571033.653       5893704.782
10 0 59822  48300.000000  0       -897248.220       3956908.582       5647774.998
10 0 59822  48360.000000  0       -858092.552       4325722.647       5377765.567
10 0 59822  48420.000000  0       -812158.860       4675851.444       5084824.523
10 0 59822  48480.000000  0       -759811.468       5005752.691       4770198.481
10 0 59822  48540.000000  0       -701455.085       5313973.381       4435227.280
10 0 59822  48600.000000  0       -637532.245       5599156.381       4081338.185
10 0 59822  48660.000000  0       -568520.561       5860046.582       3710039.928
10 0 59822  48720.000000  0       -494929.846       6095496.851       3322916.405
10 0 59822  48780.000000  0       -417299.017       6304473.643       2921619.790
10 0 59822  48840.000000  0       -336192.751       6486061.892       2507863.049
10 0 59822  48900.000000  0       -252197.929       6639469.078       2083412.369
10 0 59822  48960.000000  0       -165919.989       6764028.892       1650079.448
10 0 59822  49020.000000  0        -77979.173       6859204.277       1209713.456
10 0 59822  49080.000000  0         10993.296       6924589.806        764192.860
10 0 59822  49140.000000  0        100359.123       6959913.463        315417.131
10 0 59822  49200.000000  0        189476.908       6965037.801       -134701.697
10 0 59822  49260.000000  0        277706.150       6939960.336       -584247.565
10 0 59822  49320.000000  0        364411.167       6884813.223      -1031308.859
10 0 59822  49380.000000  0        448964.968       6799862.304      -1473986.794
10 0 59822  49440.000000  0        530753.048       6685505.526      -1910403.694
10 0 59822  49500.000000  0        609177.122       6542270.740      -2338711.114
10 0 59822  49560.000000  0        683658.771       6370812.900      -2757097.793
10 0 59822  49620.000000  0        753642.961       6171910.669      -3163797.384
10 0 59822  49680.000000  0        818601.415       5946462.462      -3557095.938
10 0 59822  49740.000000  0        878035.819       5695481.930      -3935339.085
10 0 59822  49800.000000  0        931480.839       5420092.957      -4296938.882
10 0 59822  49860.000000  0        978506.953       5121524.185      -4640380.301
10 0 59822  49920.000000  0       1018723.064       4801103.109      -4964227.325
10 0 59822  49980.000000  0       1051778.894       4460249.804      -5267128.642
10 0 59822  50040.000000  0       1077367.127       4100470.322      -5547822.926
10 0 59822  50100.000000  0       1095225.293       3723349.788      -5805143.748
10 0 59822  50160.000000  0       1105137.417       3330545.172      -6038024.050
10 0 59822  50220.000000  0       1106935.415       2923777.816      -6245500.117
10 0 59822  50280.000000  0       1100500.225       2504825.804      -6426715.092
10 0 59822  50340.000000  0       1085762.665       2075516.215      -6580922.046
99
